STARLINK-31924          
1 59904U 24100V   26068.52988380 -.00002380  00000+0 -76999-4 0  9997
2 59904  43.0003 126.1950 0000846 276.5216  83.5539 15.27576037101121
REAL                    
1 64875U 25154G   26068.72233414  .00022901  00000+0  82904-3 0  9994
2 64875  97.4133 137.2581 0001853 118.5876 241.5550 15.28408058 34830
